UBAKUSAT                
1 43467U 98067NQ  19341.85945673  .00011156  00000-0  10700-3 0  9994
2 43467  51.6342 186.3523 0001126  53.0699 307.0400 15.67195496 89832
BATSU-CS1 (IRAZU)       
1 43468U 98067NR  19341.75817250  .00059331  00000-0  27889-3 0  9996
2 43468  51.6331 167.5237 0002901 199.8370 160.2520 15.82555080190056
CUBERRT                 
1 43546U 98067NU  19341.82450110  .00006580  00000-0  63002-4 0  9995
2 43546  51.6355 185.3716 0004436  79.6832 280.4664 15.68094951 79972
TEMPEST-D               
1 43547U 98067NV  19341.86167309  .00003691  00000-0  51286-4 0  9996
2 43547  51.6371 202.1598 0005916  57.6982 302.4583 15.59870236 79437
RAINCUBE                
1 43548U 98067NW  19341.81096094  .00012338  00000-0  12393-3 0  9997
2 43548  51.6343 192.7635 0005128  81.2127 278.9449 15.65907671 80006
HALOSAT                 
1 43549U 98067NX  19341.88979958  .00010764  00000-0  10931-3 0  9991
2 43549  51.6359 192.5725 0004944  82.2222 277.9334 15.65796827 79575
ENDUROSAT ONE           
1 43551U 98067NZ  19341.87894154  .00017152  00000-0  15289-3 0  9996
2 43551  51.6345 187.9803 0005323  96.6405 263.5198 15.68558134 80045
EQUISAT                 
1 43552U 98067PA  19341.85520226  .00012141  00000-0  12114-3 0  9998
2 43552  51.6362 191.6292 0005797  88.4105 271.7555 15.66092532 79959
AEROCUBE 12A            
1 43556U 18046C   19341.75330619  .00000678  00000-0  36116-4 0  9996
2 43556  51.6429 311.0313 0008081 330.0184  30.0332 15.29190850 77881
AEROCUBE 12B            
1 43557U 18046D   19341.65353885  .00001251  00000-0  56310-4 0  9992
2 43557  51.6434 311.8587 0008175 328.9147  31.1348 15.29002638 77816
UITMSAT-1               
1 43589U 98067PD  19341.88313636  .00014747  00000-0  14168-3 0  9991
2 43589  51.6335 191.7123 0005357  99.5639 260.5962 15.66837276 75697
MAYA-1                  
1 43590U 98067PE  19341.87650097  .00014254  00000-0  13707-3 0  9998
2 43590  51.6340 191.6744 0005482 100.0740 260.0875 15.66846037 75629
BHUTAN-1                
1 43591U 98067PF  19341.86051365  .00014279  00000-0  13693-3 0  9992
2 43591  51.6343 191.6084 0005600  99.7193 260.4436 15.66914087 75626
SIRIUSSAT-1             
1 43595U 98067PG  19341.88752623  .00013417  00000-0  13526-3 0  9991
2 43595  51.6338 194.0032 0002917  71.5849 288.5463 15.65729561 74774
SIRIUSSAT-2             
1 43596U 98067PH  19341.87210530  .00013376  00000-0  13572-3 0  9992
2 43596  51.6348 194.7054 0003349  67.7673 292.3677 15.65568301 74761
TANUSHA-3               
1 43597U 98067PJ  19341.88546808  .00020134  00000-0  17669-3 0  9995
2 43597  51.6327 190.1899 0003169  96.9459 263.1898 15.68819612 74827
SURFSAT                 
1 43614U 18070B   19341.83997065  .00001957  00000-0  51920-4 0  9992
2 43614  93.0387  74.8613 0015890  11.6800 348.4820 15.38295129 68860
CP7 (DAVE)              
1 43615U 18070C   19341.79101290  .00001919  00000-0  51087-4 0  9997
2 43615  93.0391  74.8390 0016027  11.1753 348.9854 15.38190047 68857
ELFIN-B                 
1 43616U 18070D   19341.84395812  .00002778  00000-0  71606-4 0  9992
2 43616  93.0350  74.7679 0016638  13.7704 346.4001 15.39132140 68885
ELFIN-A                 
1 43617U 18070E   19341.83047487  .00002966  00000-0  76210-4 0  9999
2 43617  93.0407  75.1136 0015756  10.9014 349.2578 15.39241343 68881
CUBEBEL-1 (BSUSAT-1)    
1 43666U 18083E   19341.90247894  .00000685  00000-0  37155-4 0  9990
2 43666  97.5082   5.1148 0013887 315.0391 165.4676 15.17874792 61403
DEBRISSAT-2             
1 43680U 98067PR  19341.82644908  .00028275  00000-0  21810-3 0  9999
2 43680  51.6327 188.3372 0003485 121.5709 238.5630 15.71713203 83574
CICERO 10               
1 43690U 18088A   19341.87353928  .00000715  00000-0  31414-4 0  9990
2 43690  85.0395 205.1550 0013107 301.5601  58.4359 15.19917810 59482
IRVINE01                
1 43693U 18088D   19341.91027579  .00001834  00000-0  78310-4 0  9997
2 43693  85.0368 204.3532 0016123 282.1531  77.7905 15.22037933 59555
PROXIMA I               
1 43694U 18088E   19341.88758804  .00000736  00000-0  30675-4 0  9998
2 43694  85.0338 204.1607 0017125 272.2529  87.6752 15.21646869 59557
PROXIMA II              
1 43696U 18088G   19341.88621369  .00000746  00000-0  31146-4 0  9990
2 43696  85.0338 204.1636 0017161 272.1554  87.7723 15.21650798 59553
FACSAT-1                
1 43721U 18096C   19341.87574939  .00001161  00000-0  46832-4 0  9997
2 43721  97.4433  51.3324 0019446  83.7869 276.5585 15.26711909 57003
CENTAURI-2              
1 43722U 18096D   19341.69499979  .00001481  00000-0  58330-4 0  9999
2 43722  97.4440  51.2753 0019503  84.8026 275.5438 15.27062382 56974
INNOSAT-2               
1 43738U 18096V   19341.89902138  .00001982  00000-0  71607-4 0  9992
2 43738  97.4447  52.6975 0025598  92.7749 267.6422 15.29396763 57094
SIRION PATHFINDER-2     
1 43759U 18099B   19341.91420679 -.00000297  00000-0 -21776-4 0  9998
2 43759  97.7290  51.6320 0015705 104.8871 255.4090 14.95200090 55160
CORVUS-BC 4             
1 43767U 18099K   19341.91751249 -.00000207  00000-0 -13813-4 0  9991
2 43767  97.7274  51.2517 0013209 108.0455 252.2205 14.94640715 55148
MOVE-II                 
1 43780U 18099Y   19341.73538145  .00000566  00000-0  56586-4 0  9994
2 43780  97.7287  51.3566 0014978 116.7178 243.5578 14.95212913 55113
SPACEBEE-7              
1 43816U 18099BL  19341.44666837 -.00000113  00000-0 -49742-5 0  9999
2 43816  97.7304  51.3404 0014824 103.1249 257.1627 14.95537518 54647
SPACEBEE-5              
1 43817U 18099BM  19341.86638286  .00000874  00000-0  83051-4 0  9995
2 43817  97.7333  51.9468 0014587 103.6781 256.6065 14.95933233 54710
SPACEBEE-6              
1 43818U 18099BN  19341.83205738  .00000497  00000-0  49849-4 0  9993
2 43818  97.7315  51.7815 0014919 102.0106 258.2788 14.95666063 54857
SHIELDS 1               
1 43850U 18104B   19341.60654431  .00000042  00000-0  00000-0 0  9997
2 43850  85.0286 302.8171 0017247  62.5470 297.7567 15.21216421 54151
STF-1                   
1 43852U 18104D   19341.59246051  .00000042  00000-0  00000+0 0  9991
2 43852  85.0339 303.2198 0017273  74.7704 285.5483 15.20889774 54136
ZACUBE-2                
1 43907U 18111AH  19341.93538767  .00000474  00000-0  22056-4 0  9995
2 43907  97.2787 242.3161 0023313 102.4640 257.9209 15.24368141 52683
LUME 1                  
1 43908U 18111AJ  19341.83958840  .00000780  00000-0  34206-4 0  9993
2 43908  97.2787 242.2892 0023144 102.6295 257.7533 15.24647233 52673
AOBA VELOX-IV           
1 43940U 19003J   19341.84116988  .00001358  00000-0  57955-4 0  9998
2 43940  97.2563  34.5007 0024273 180.3990 300.5740 15.24340263 49306
CATSAT-2                
1 44029U 98067PV  19341.91141116  .00008275  00000-0  10718-3 0  9993
2 44029  51.6379 207.7718 0005322  84.7879 275.3722 15.59838100 48425
DELPHINI                
1 44030U 98067PW  19341.88255131  .00009641  00000-0  12230-3 0  9993
2 44030  51.6356 207.5373 0005041  84.7372 275.4196 15.60165890 48396
UNITE                   
1 44031U 98067PX  19341.88424305  .00005741  00000-0  81811-4 0  9994
2 44031  51.6375 209.8214 0003878  79.9285 280.2145 15.57952911 48361
TECHEDSAT 8             
1 44032U 98067PY  19341.89920701  .00036593  00000-0  30070-3 0  9996
2 44032  51.6337 198.6285 0004068 125.0965 235.0415 15.70053900 48490
CATSAT-1                
1 44033U 98067PZ  19341.78319554  .00009455  00000-0  12146-3 0  9994
2 44033  51.6383 208.4177 0005161  82.9727 277.1853 15.59856702 48316
RAAVANA-1               
1 44329U 98067QE  19341.91207729  .00006235  00000-0  10045-3 0  9996
2 44329  51.6395 216.7751 0006434  12.6767 347.4384 15.54374448 27027
UGUISU                  
1 44330U 98067QF  19341.85239668  .00006226  00000-0  10049-3 0  9992
2 44330  51.6396 217.1255 0006379  11.3651 348.7483 15.54323964 26996
NEPALISAT-1             
1 44331U 98067QG  19341.90822965  .00006139  00000-0  98894-4 0  9995
2 44331  51.6396 216.7498 0006463  14.1467 345.9704 15.54407497 27014
SPOOQY-1                
1 44332U 98067QH  19341.90539243  .00005694  00000-0  92295-4 0  9994
2 44332  51.6395 216.7281 0005412  18.4192 341.6993 15.54398155 26976
SPACEBEE-9              
1 44370U 19037F   19341.75036236  .00004753  00000-0  12194-3 0  9997
2 44370  45.0154 110.9148 0013072 137.1916 222.9996 15.40704908 24850
SPACEBEE-8              
1 44371U 19037G   19341.80127485  .00010412  00000-0  24289-3 0  9998
2 44371  45.0162 109.6108 0011814 143.3211 216.8491 15.42420598 24865
IOD-1 GEMS              
1 44385U 98067QK  19341.92950072  .00008688  00000-0  13473-3 0  9997
2 44385  51.6405 216.9111 0002215 346.5063  13.5869 15.54862687 24498
MOVE-IIB                
1 44398U 19038N   19341.85202852  .00000965  00000-0  59692-4 0  9994
2 44398  97.5111 300.9143 0027083  71.8074 288.6102 15.11893347 23476
SONATE                  
1 44400U 19038Q   19341.85460911  .00000443  00000-0  29593-4 0  9998
2 44400  97.5132 300.9328 0026930  70.3409 290.0724 15.11762746 23479
LUCKY-7                 
1 44406U 19038W   19341.83459767  .00000586  00000-0  37688-4 0  9991
2 44406  97.5129 300.9564 0026386  70.3207 290.0867 15.11975744 23465
BEESAT 9                
1 44412U 19038AC  19341.83812070  .00000767  00000-0  48191-4 0  9990
2 44412  97.5124 300.9466 0024554  75.8047 284.5909 15.11974027 23160
JAISAT-1                
1 44419U 19038F   19341.85373280  .00000691  00000-0  43273-4 0  9996
2 44419  97.5126 301.0810 0023401  75.4604 284.9221 15.12460727 23483
SWIATOWID               
1 44426U 98067QL  19341.81259378  .00009790  00000-0  15043-3 0  9992
2 44426  51.6424 217.5250 0002332 335.5931  69.3597 15.54947749 24487
KRAKSAT                 
1 44427U 98067QM  19341.93521255  .00004721  00000-0  80792-4 0  9995
2 44427  51.6412 217.6934 0003011 328.7863  31.2948 15.53314281 24530
